STARLINK-2031
1 27648C 21012AE  21325.14912354  .00006783  00000-0  45447-3 0  3251
2 27648  53.0547 257.5568 0001675  64.2877  28.6113 15.06390170    10
